ONEWEB-0371             
1 49297U 21090U   24258.53797592  .00000100  00000+0  21808-3 0  9993
2 49297  87.9091  72.3901 0001876  94.2246 265.9101 13.19724464141953
ONEWEB-0372             
1 49298U 21090V   24258.41042510  .00000124  00000+0  27356-3 0  9994
2 49298  87.9232  41.9015 0001754 100.2057 259.9275 13.20772012145258
ONEWEB-0373             
1 49299U 21090W   24258.43738843  .00000431  00000+0  10291-2 0  9998
2 49299  87.9228  41.9109 0001457  93.8512 266.2788 13.20771085146442
ONEWEB-0375             
1 49301U 21090Y   24258.42476264  .00000200  00000+0  45997-3 0  9993
2 49301  87.9230  41.8901 0001546  72.2021 287.9281 13.20771299145942
ONEWEB-0376             
1 49302U 21090Z   24258.53638664  .00000089  00000+0  19116-3 0  9999
2 49302  87.9085  72.3929 0001728 100.4113 259.7214 13.19723058141956
ONEWEB-0377             
1 49303U 21090AA  24258.48644892  .00000100  00000+0  21291-3 0  9995
2 49303  87.9232  41.8699 0001983  91.9333 268.2028 13.20769920145948
